XRISM                   
1 57800U 23137A   24088.54586824  .00006174  00000+0  47678-3 0  9992
2 57800  31.0024 165.5124 0010126 130.2745 229.8776 15.00098038 30488
